GLOBALSTAR M057 [-]     
1 25943U 99058A   23339.85431272 -.00000061  00000+0  28973-3 0  9995
2 25943  51.9958 135.5107 0001363 311.1989  48.8743 12.24780337 98399
GLOBALSTAR M059 [-]     
1 25944U 99058B   23339.92401503 -.00000036  00000+0  62384-3 0  9994
2 25944  52.0029 280.1278 0000833  16.7823  89.5227 11.99957191506908
GLOBALSTAR M056 [-]     
1 25945U 99058C   23339.89635446 -.00000075  00000+0  14184-3 0  9994
2 25945  51.9981 296.5307 0000869 116.1962 259.7706 12.04774615 95211
GLOBALSTAR M031 [-]     
1 25946U 99058D   23339.90853715 -.00000060  00000+0  31450-3 0  9997
2 25946  51.9948 222.2824 0002329 100.7294  33.1563 12.16000037 96506
GLOBALSTAR M039 [-]     
1 25961U 99062A   23339.74594240 -.00000077  00000+0  14850-3 0  9999
2 25961  51.9818 172.5900 0002853 163.8011 196.2947 12.62276210109567
GLOBALSTAR M034 [-]     
1 25962U 99062B   23339.44683872 -.00000024  00000+0  90727-3 0  9996
2 25962  51.9906  26.3532 0014191  66.6348  33.9858 11.79419002 72342
GLOBALSTAR M029 [-]     
1 25963U 99062C   23339.73260083 -.00000067  00000+0  24412-3 0  9999
2 25963  51.9768 169.1590 0003863  97.5121  28.9679 11.99871560101964
GLOBALSTAR M061 [-]     
1 25964U 99062D   23339.80093583 -.00000050  00000+0  49623-3 0  9990
2 25964  51.9767 202.0577 0006296   5.0175 118.7512 11.76755418 55322
